[{"OBJECT_NAME":"STARLINK-30545","OBJECT_ID":"2023-153K","EPOCH":"2026-03-09T09:04:12.550656","MEAN_MOTION":15.26741829,"ECCENTRICITY":0.00012085,"INCLINATION":42.9998,"RA_OF_ASC_NODE":68.3822,"ARG_OF_PERICENTER":226.2346,"MEAN_ANOMALY":133.8405,"EPHEMERIS_TYPE":0,"CLASSIFICATION_TYPE":"U","NORAD_CAT_ID":58000,"ELEMENT_SET_NO":999,"REV_AT_EPOCH":13485,"BSTAR":-2.9325451e-5,"MEAN_MOTION_DOT":-1.046e-5,"MEAN_MOTION_DDOT":0},{"OBJECT_NAME":"FOSSASAT-2E20 (TAT-O)","OBJECT_ID":"2025-009DN","EPOCH":"2026-03-09T17:00:18.734688","MEAN_MOTION":15.2699108,"ECCENTRICITY":0.00021892,"INCLINATION":97.3231,"RA_OF_ASC_NODE":146.2859,"ARG_OF_PERICENTER":347.5575,"MEAN_ANOMALY":12.561,"EPHEMERIS_TYPE":0,"CLASSIFICATION_TYPE":"U","NORAD_CAT_ID":63003,"ELEMENT_SET_NO":999,"REV_AT_EPOCH":12131,"BSTAR":0.00061862572,"MEAN_MOTION_DOT":0.00016337,"MEAN_MOTION_DDOT":0}]
